$$SOE
2459580.500000000, A.D. 2022-Jan-01 00:00:00.0000, -1.109179804716682E+08, 4.143416586109358E+08, 3.312814000008643E+06,
2459587.500000000, A.D. 2022-Jan-08 00:00:00.0000, -1.220270432743921E+08, 4.144243673777109E+08, 3.860787009804189E+06,
2459594.500000000, A.D. 2022-Jan-15 00:00:00.0000, -1.330627170160728E+08, 4.142575844599172E+08, 4.406437821066290E+06,
2459601.500000000, A.D. 2022-Jan-22 00:00:00.0000, -1.440200492297773E+08, 4.138466874382877E+08, 4.949493680310845E+06,
2459608.500000000, A.D. 2022-Jan-29 00:00:00.0000, -1.548943621124375E+08, 4.131970459114968E+08, 5.489695584920049E+06,
2459615.500000000, A.D. 2022-Feb-05 00:00:00.0000, -1.656812436115544E+08, 4.123140113749018E+08, 6.026797931403250E+06,
2459622.500000000, A.D. 2022-Feb-12 00:00:00.0000, -1.763765364656895E+08, 4.112029070095069E+08, 6.560567879836202E+06,
2459629.500000000, A.D. 2022-Feb-19 00:00:00.0000, -1.869763265708529E+08, 4.098690196887354E+08, 7.090784751920670E+06,
2459636.500000000, A.D. 2022-Feb-26 00:00:00.0000, -1.974769320199837E+08, 4.083175934181556E+08, 7.617239525707334E+06,
2459643.500000000, A.D. 2022-Mar-05 00:00:00.0000, -2.078748926854217E+08, 4.065538235281129E+08, 8.139734363598645E+06,
2459650.500000000, A.D. 2022-Mar-12 00:00:00.0000, -2.181669601469019E+08, 4.045828514923553E+08, 8.658082149243832E+06,
2459657.500000000, A.D. 2022-Mar-19 00:00:00.0000, -2.283500879136568E+08, 4.024097603425332E+08, 9.172106030115098E+06,
2459664.500000000, A.D. 2022-Mar-26 00:00:00.0000, -2.384214219334731E+08, 4.000395706176654E+08, 9.681638963994890E+06,
2459671.500000000, A.D. 2022-Apr-02 00:00:00.0000, -2.483782913321685E+08, 3.974772367409687E+08, 1.018652325916025E+07,
2459678.500000000, A.D. 2022-Apr-09 00:00:00.0000, -2.582181991191978E+08, 3.947276437802417E+08, 1.068661008412915E+07,
2459685.500000000, A.D. 2022-Apr-16 00:00:00.0000, -2.679388125071898E+08, 3.917956052003517E+08, 1.118175896795067E+07,
2459692.500000000, A.D. 2022-Apr-23 00:00:00.0000, -2.775379541171228E+08, 3.886858626503793E+08, 1.167183749618560E+07,
2459699.500000000, A.D. 2022-Apr-30 00:00:00.0000, -2.870135959388468E+08, 3.854030855021878E+08, 1.215672119064078E+07,
2459706.500000000, A.D. 2022-May-07 00:00:00.0000, -2.963638529799564E+08, 3.819518681291242E+08, 1.263629313072827E+07,
2459713.500000000, A.D. 2022-May-14 00:00:00.0000, -3.055869752101340E+08, 3.783367279270384E+08, 1.311044343735144E+07,
2459720.500000000, A.D. 2022-May-21 00:00:00.0000, -3.146813398284364E+08, 3.745621048059960E+08, 1.357906886744696E+07,
2459727.500000000, A.D. 2022-May-28 00:00:00.0000, -3.236454443257686E+08, 3.706323611660222E+08, 1.404207248453511E+07,
2459734.500000000, A.D. 2022-Jun-04 00:00:00.0000, -3.324779000575440E+08, 3.665517820172348E+08, 1.449936335411356E+07,
2459741.500000000, A.D. 2022-Jun-11 00:00:00.0000, -3.411774261736166E+08, 3.623245752217606E+08, 1.495085625059089E+07,
2459748.500000000, A.D. 2022-Jun-18 00:00:00.0000, -3.497428438581687E+08, 3.579548718481582E+08, 1.539647137305690E+07,
2459755.500000000, A.D. 2022-Jun-25 00:00:00.0000, -3.581730708410767E+08, 3.534467265846318E+08, 1.583613406422353E+07,
2459762.500000000, A.D. 2022-Jul-02 00:00:00.0000, -3.664671160373576E+08, 3.488041181265252E+08, 1.626977451461415E+07,
2459769.500000000, A.D. 2022-Jul-09 00:00:00.0000, -3.746240739148612E+08, 3.440309496978069E+08, 1.669732743042228E+07,
2459776.500000000, A.D. 2022-Jul-16 00:00:00.0000, -3.826431186360459E+08, 3.391310507735117E+08, 1.711873175835091E+07,
2459783.500000000, A.D. 2022-Jul-23 00:00:00.0000, -3.905235001635530E+08, 3.341081800670133E+08, 1.753393067519511E+07,
2459790.500000000, A.D. 2022-Jul-30 00:00:00.0000, -3.982645422360025E+08, 3.289660264162878E+08, 1.794287156015779E+07,
2459797.500000000, A.D. 2022-Aug-06 00:00:00.0000, -4.058656386043347E+08, 3.237082082048424E+08, 1.834550567265093E+07,
2459804.500000000, A.D. 2022-Aug-13 00:00:00.0000, -4.133262483429350E+08, 3.183382740598109E+08, 1.874178783605897E+07,
2459811.500000000, A.D. 2022-Aug-20 00:00:00.0000, -4.206458917971599E+08, 3.128597043147960E+08, 1.913167623008201E+07,
2459818.500000000, A.D. 2022-Aug-27 00:00:00.0000, -4.278241470903742E+08, 3.072759125031340E+08, 1.951513222585367E+07,
2459825.500000000, A.D. 2022-Sep-03 00:00:00.0000, -4.348606469333479E+08, 3.015902467635142E+08, 1.989212023185772E+07,
2459832.500000000, A.D. 2022-Sep-10 00:00:00.0000, -4.417550756367430E+08, 2.958059911747626E+08, 2.026260754407752E+07,
2459839.500000000, A.D. 2022-Sep-17 00:00:00.0000, -4.485071662882523E+08, 2.899263670113352E+08, 2.062656419720173E+07,
2459846.500000000, A.D. 2022-Sep-24 00:00:00.0000, -4.551166980253496E+08, 2.839545338621786E+08, 2.098396280678649E+07,
2459853.500000000, A.D. 2022-Oct-01 00:00:00.0000, -4.615834931558759E+08, 2.778935905845953E+08, 2.133477837808131E+07,
2459860.500000000, A.D. 2022-Oct-08 00:00:00.0000, -4.679074137123578E+08, 2.717465766098379E+08, 2.167898808632356E+07,
2459867.500000000, A.D. 2022-Oct-15 00:00:00.0000, -4.740883583661387E+08, 2.655164747953377E+08, 2.201657121142684E+07,
2459874.500000000, A.D. 2022-Oct-22 00:00:00.0000, -4.801262618779458E+08, 2.592062141369669E+08, 2.234750928898759E+07,
2459881.500000000, A.D. 2022-Oct-29 00:00:00.0000, -4.860210945809802E+08, 2.528186697462313E+08, 2.267178603599869E+07,
2459888.500000000, A.D. 2022-Nov-05 00:00:00.0000, -4.917728597897881E+08, 2.463566628308549E+08, 2.298938708218883E+07,
2459895.500000000, A.D. 2022-Nov-12 00:00:00.0000, -4.973815910937542E+08, 2.398229619429470E+08, 2.330029979023470E+07,
2459902.500000000, A.D. 2022-Nov-19 00:00:00.0000, -5.028473502495649E+08, 2.332202845387588E+08, 2.360451315236862E+07,
2459909.500000000, A.D. 2022-Nov-26 00:00:00.0000, -5.081702254050270E+08, 2.265512984512086E+08, 2.390201770645595E+07,
2459916.500000000, A.D. 2022-Dec-03 00:00:00.0000, -5.133503294828066E+08, 2.198186232620527E+08, 2.419280545503779E+07,
2459923.500000000, A.D. 2022-Dec-10 00:00:00.0000, -5.183877986735165E+08, 2.130248315908821E+08, 2.447686978441145E+07,
2459930.500000000, A.D. 2022-Dec-17 00:00:00.0000, -5.232827910087565E+08, 2.061724502746744E+08, 2.475420537920964E+07,
2459937.500000000, A.D. 2022-Dec-24 00:00:00.0000, -5.280354849003198E+08, 1.992639613710275E+08, 2.502480811687560E+07,
2459944.500000000, A.D. 2022-Dec-31 00:00:00.0000, -5.326460772837105E+08, 1.923018030917359E+08, 2.528867491786247E+07,
2459951.500000000, A.D. 2023-Jan-07 00:00:00.0000, -5.371147812392445E+08, 1.852883716282929E+08, 2.554580361881039E+07,
2459958.500000000, A.D. 2023-Jan-14 00:00:00.0000, -5.414418250543522E+08, 1.782260243654169E+08, 2.579619308960029E+07,
2459965.500000000, A.D. 2023-Jan-21 00:00:00.0000, -5.456274533691162E+08, 1.711170813099504E+08, 2.603984339405712E+07,
2459972.500000000, A.D. 2023-Jan-28 00:00:00.0000, -5.496719267334633E+08, 1.639638245400559E+08, 2.627675564183460E+07,
2459979.500000000, A.D. 2023-Feb-04 00:00:00.0000, -5.535755197803819E+08, 1.567684987020383E+08, 2.650693179797492E+07,
2459986.500000000, A.D. 2023-Feb-11 00:00:00.0000, -5.573385198074708E+08, 1.495333123606747E+08, 2.673037459891193E+07,
2459993.500000000, A.D. 2023-Feb-18 00:00:00.0000, -5.609612258277018E+08, 1.422604393801647E+08, 2.694708751340719E+07,
2460000.500000000, A.D. 2023-Feb-25 00:00:00.0000, -5.644439478238338E+08, 1.349520201744998E+08, 2.715707471109565E+07,
2460007.500000000, A.D. 2023-Mar-04 00:00:00.0000, -5.677870061013043E+08, 1.276101628465329E+08, 2.736034103082534E+07,
2460014.500000000, A.D. 2023-Mar-11 00:00:00.0000, -5.709907307081033E+08, 1.202369442166030E+08, 2.755689194625394E+07,
2460021.500000000, A.D. 2023-Mar-18 00:00:00.0000, -5.740554608719130E+08, 1.128344106915390E+08, 2.774673352041374E+07,
2460028.500000000, A.D. 2023-Mar-25 00:00:00.0000, -5.769815442487988E+08, 1.054045789271403E+08, 2.792987232684221E+07,
2460035.500000000, A.D. 2023-Apr-01 00:00:00.0000, -5.797693355567371E+08, 9.794943667783871E+07, 2.810631533060755E+07,
2460042.500000000, A.D. 2023-Apr-08 00:00:00.0000, -5.824191952074608E+08, 9.047094505876622E+07, 2.827606988589559E+07,
2460049.500000000, A.D. 2023-Apr-15 00:00:00.0000, -5.849314902724447E+08, 8.297104111437590E+07, 2.843914397421320E+07,
2460056.500000000, A.D. 2023-Apr-22 00:00:00.0000, -5.873065959730728E+08, 7.545163764263786E+07, 2.859554626793204E+07,
2460063.500000000, A.D. 2023-Apr-29 00:00:00.0000, -5.895448949580814E+08, 6.791462252897879E+07, 2.874528595243350E+07,
2460070.500000000, A.D. 2023-May-06 00:00:00.0000, -5.916467761261023E+08, 6.036185937175007E+07, 2.888837261375619E+07,
2460077.500000000, A.D. 2023-May-13 00:00:00.0000, -5.936126339683830E+08, 5.279518850610323E+07, 2.902481620810533E+07,
2460084.500000000, A.D. 2023-May-20 00:00:00.0000, -5.954428681960068E+08, 4.521642793581481E+07, 2.915462705134526E+07,
2460091.500000000, A.D. 2023-May-27 00:00:00.0000, -5.971378834564240E+08, 3.762737414412151E+07, 2.927781580800958E+07,
2460098.500000000, A.D. 2023-Jun-03 00:00:00.0000, -5.986980890801854E+08, 3.002980280974002E+07, 2.939439347632741E+07,
2460105.500000000, A.D. 2023-Jun-10 00:00:00.0000, -6.001238988330721E+08, 2.242546941441779E+07, 2.950437136561710E+07,
2460112.500000000, A.D. 2023-Jun-17 00:00:00.0000, -6.014157305839665E+08, 1.481610968221764E+07, 2.960776105265171E+07,
2460119.500000000, A.D. 2023-Jun-24 00:00:00.0000, -6.025740055679462E+08, 7.203439906748608E+06, 2.970457429190511E+07,
2460126.500000000, A.D. 2023-Jul-01 00:00:00.0000, -6.035991469907069E+08, -4.108420048163421E+05, 2.979482292388219E+07,
2460133.500000000, A.D. 2023-Jul-08 00:00:00.0000, -6.044915796474184E+08, -8.025053948287085E+06, 2.987851900202669E+07,
2460140.500000000, A.D. 2023-Jul-15 00:00:00.0000, -6.052517318323134E+08, -1.563752832887844E+07, 2.995567502388391E+07,
2460147.500000000, A.D. 2023-Jul-22 00:00:00.0000, -6.058800360172492E+08, -2.324661309100571E+07, 3.002630385889331E+07,
$$EOE